NORAD_CAT_ID,OBJECT_NAME,OBJECT_TYPE,EPOCH,MEAN_MOTION,ECCENTRICITY,INCLINATION,RA_OF_ASC_NODE,ARG_OF_PERICENTER,MEAN_ANOMALY,BSTAR,MEAN_MOTION_DOT,MEAN_MOTION_DDOT,TLE_LINE0,TLE_LINE1,TLE_LINE2,SEMIMAJOR_AXIS,PERIOD,APOGEE,PERIGEE,DECAYED
51878.0,STARLINK-3575,PAYLOAD,2023-08-13 13:55:48,15.08847975,0.0001051,53.2158,264.945,104.187,255.9239,5.0685e-05,5.19e-06,0.0,0 STARLINK-3575,1 51878U 22022AC  23225.58042614  .00000519  00000-0  50685-4 0  9994,2 51878  53.2158 264.9450 0001051 104.1870 255.9239 15.08847975 81348,6917.856,95.437,540.448,538.994,0.0
51878.0,STARLINK-3575,PAYLOAD,2023-08-14 02:38:54,15.08837834,0.0001208,53.2156,262.5664,75.0242,285.0884,0.00011453,1.535e-05,0.0,0 STARLINK-3575,1 51878U 22022AC  23226.11035254  .00001535  00000-0  11453-3 0  9994,2 51878  53.2156 262.5664 0001208  75.0242 285.0884 15.08837834 81422,6917.887,95.438,540.588,538.916,0.0
51878.0,STARLINK-3575,PAYLOAD,2023-08-15 07:15:50,15.08842065,0.0001213,53.216,257.2131,78.3707,281.7422,3.7111e-05,3.03e-06,0.0,0 STARLINK-3575,1 51878U 22022AC  23227.30267091  .00000303  00000-0  37111-4 0  9994,2 51878  53.2160 257.2131 0001213  78.3707 281.7422 15.08842065 81608,6917.874,95.437,540.578,538.9,0.0
51878.0,STARLINK-3575,PAYLOAD,2023-08-16 02:20:28,15.08835366,0.0001161,53.2158,253.644,86.8816,273.2309,3.7192e-05,3.04e-06,0.0,0 STARLINK-3575,1 51878U 22022AC  23228.09755550  .00000304  00000-0  37192-4 0  9993,2 51878  53.2158 253.6440 0001161  86.8816 273.2309 15.08835366 81724,6917.895,95.438,540.563,538.956,0.0
51878.0,STARLINK-3575,PAYLOAD,2023-08-17 06:57:24,15.08841979,0.0001214,53.2158,248.2912,88.4267,271.6864,8.5605e-05,1.075e-05,0.0,0 STARLINK-3575,1 51878U 22022AC  23229.28987133  .00001075  00000-0  85605-4 0  9997,2 51878  53.2158 248.2912 0001214  88.4267 271.6864 15.08841979 81900,6917.874,95.437,540.579,538.9,0.0
51878.0,STARLINK-3575,PAYLOAD,2023-08-18 02:02:03,15.08833881,0.0001296,53.2163,244.723,93.591,266.523,5.9206e-05,6.54e-06,0.0,0 STARLINK-3575,1 51878U 22022AC  23230.08475831  .00000654  00000-0  59206-4 0  9994,2 51878  53.2163 244.7230 0001296  93.5910 266.5230 15.08833881 82029,6917.899,95.438,540.661,538.868,0.0
51878.0,STARLINK-3575,PAYLOAD,2023-08-19 01:52:49,15.08842571,0.0001339,53.2165,240.2628,92.0332,268.0813,4.012e-05,3.51e-06,0.0,0 STARLINK-3575,1 51878U 22022AC  23231.07835465  .00000351  00000-0  40120-4 0  9996,2 51878  53.2165 240.2628 0001339  92.0332 268.0813 15.08842571 82179,6917.873,95.437,540.664,538.811,0.0
51878.0,STARLINK-3575,PAYLOAD,2023-08-20 00:08:14,15.08833825,0.0001343,53.2163,236.0995,91.1534,268.9612,3.5449e-05,2.76e-06,0.0,0 STARLINK-3575,1 51878U 22022AC  23232.00572081  .00000276  00000-0  35449-4 0  9996,2 51878  53.2163 236.0995 0001343  91.1534 268.9612 15.08833825 82310,6917.899,95.438,540.693,538.835,0.0
51878.0,STARLINK-3575,PAYLOAD,2023-08-21 09:31:19,15.08847016,0.0001356,53.216,229.8545,88.3938,271.7209,8.2996e-05,1.033e-05,0.0,0 STARLINK-3575,1 51878U 22022AC  23233.39675210  .00001033  00000-0  82996-4 0  9998,2 51878  53.2160 229.8545 0001356  88.3938 271.7209 15.08847016 82522,6917.859,95.437,540.662,538.786,0.0
51878.0,STARLINK-3575,PAYLOAD,2023-08-22 04:35:57,15.08840444,0.0001364,53.216,226.2842,93.6446,266.4702,6.108e-05,6.84e-06,0.0,0 STARLINK-3575,1 51878U 22022AC  23234.19163704  .00000684  00000-0  61080-4 0  9999,2 51878  53.2160 226.2842 0001364  93.6446 266.4702 15.08840444 82645,6917.879,95.438,540.688,538.8,0.0
51878.0,STARLINK-3575,PAYLOAD,2023-08-23 07:37:30,15.08840701,0.0001418,53.2166,221.2292,94.2224,265.893,1.4925e-05,-5e-07,0.0,0 STARLINK-3575,1 51878U 22022AC  23235.31771845 -.00000050  00000-0  14925-4 0  9999,2 51878  53.2166 221.2292 0001418  94.2224 265.8930 15.08840701 82817,6917.878,95.438,540.724,538.762,0.0
51878.0,STARLINK-3575,PAYLOAD,2023-08-24 09:03:41,15.08839213,0.000138,53.217,216.4728,96.5749,263.54,4.4007e-05,4.13e-06,0.0,0 STARLINK-3575,1 51878U 22022AC  23236.37756029  .00000413  00000-0  44007-4 0  9999,2 51878  53.2170 216.4728 0001380  96.5749 263.5400 15.08839213 82977,6917.883,95.438,540.702,538.793,0.0
51878.0,STARLINK-3575,PAYLOAD,2023-08-25 02:32:56,15.08834544,0.0001294,53.2164,213.2016,94.761,265.353,8.1269e-06,-1.59e-06,0.0,0 STARLINK-3575,1 51878U 22022AC  23237.10620670 -.00000159  00000-0  81269-5 0  9993,2 51878  53.2164 213.2016 0001294  94.7610 265.3530 15.08834544 83085,6917.897,95.438,540.657,538.867,0.0
51878.0,STARLINK-3575,PAYLOAD,2023-08-25 07:19:05,15.08835992,0.0001315,53.2171,212.3091,90.4381,269.6762,2.5483e-05,1.18e-06,0.0,0 STARLINK-3575,1 51878U 22022AC  23237.30492608  .00000118  00000-0  25483-4 0  9992,2 51878  53.2171 212.3091 0001315  90.4381 269.6762 15.08835992 83114,6917.893,95.438,540.667,538.848,0.0
51878.0,STARLINK-3575,PAYLOAD,2023-08-26 08:45:15,15.08836706,0.0001389,53.2172,207.5515,90.2317,269.8834,0.00013038,1.787e-05,0.0,0 STARLINK-3575,1 51878U 22022AC  23238.36476602  .00001787  00000-0  13038-3 0  9990,2 51878  53.2172 207.5515 0001389  90.2317 269.8834 15.08836706 83273,6917.89,95.438,540.716,538.795,0.0
51878.0,STARLINK-3575,PAYLOAD,2023-08-27 07:00:39,15.08844059,0.0001371,53.2168,203.3881,90.1687,269.9462,0.00011046,1.471e-05,0.0,0 STARLINK-3575,1 51878U 22022AC  23239.29212277  .00001471  00000-0  11046-3 0  9996,2 51878  53.2168 203.3881 0001371  90.1687 269.9462 15.08844059 83412,6917.868,95.437,540.681,538.785,0.0
51878.0,STARLINK-3575,PAYLOAD,2023-08-28 03:40:40,15.08839172,0.0001497,53.2167,199.5233,84.5398,275.5765,2.0993e-05,4.6e-07,0.0,0 STARLINK-3575,1 51878U 22022AC  23240.15324920  .00000046  00000-0  20993-4 0  9991,2 51878  53.2167 199.5233 0001497  84.5398 275.5765 15.08839172 83546,6917.883,95.438,540.784,538.712,0.0
51878.0,STARLINK-3575,PAYLOAD,2023-08-28 14:48:22,15.08844801,0.000138,53.2162,197.4418,91.0651,269.0499,4.4869e-05,4.26e-06,0.0,0 STARLINK-3575,1 51878U 22022AC  23240.61692382  .00000426  00000-0  44869-4 0  9992,2 51878  53.2162 197.4418 0001380  91.0651 269.0499 15.08844801 83614,6917.866,95.437,540.685,538.776,0.0
51878.0,STARLINK-3575,PAYLOAD,2023-08-29 01:56:04,15.0884654,0.0001578,53.217,195.3583,114.9903,245.1253,9.3639e-06,-1.39e-06,0.0,0 STARLINK-3575,1 51878U 22022AC  23241.08060276 -.00000139  00000-0  93639-5 0  9997,2 51878  53.2170 195.3583 0001578 114.9903 245.1253 15.08846540 83689,6917.86,95.437,540.817,538.634,0.0
51878.0,STARLINK-3575,PAYLOAD,2023-08-29 06:42:13,15.08847918,0.0001595,53.2171,194.4659,110.6373,249.4791,3.1275e-05,2.1e-06,0.0,0 STARLINK-3575,1 51878U 22022AC  23241.27932081  .00000210  00000-0  31275-4 0  9996,2 51878  53.2171 194.4659 0001595 110.6373 249.4791 15.08847918 83715,6917.856,95.437,540.825,538.618,0.0
51878.0,STARLINK-3575,PAYLOAD,2023-08-30 00:11:28,15.08833311,0.0001716,53.2171,191.1946,104.7769,255.3413,1.2209e-05,-9.4e-07,0.0,0 STARLINK-3575,1 51878U 22022AC  23242.00797239 -.00000094  00000-0  12209-4 0  9999,2 51878  53.2171 191.1946 0001716 104.7769 255.3413 15.08833311 83827,6917.901,95.438,540.953,538.579,0.0
51878.0,STARLINK-3575,PAYLOAD,2023-08-30 06:33:01,15.08834496,0.0001714,53.2171,190.0055,104.1038,256.0145,1.9478e-05,2.2e-07,0.0,0 STARLINK-3575,1 51878U 22022AC  23242.27293224  .00000022  00000-0  19478-4 0  9998,2 51878  53.2171 190.0055 0001714 104.1038 256.0145 15.08834496 83866,6917.897,95.438,540.948,538.576,0.0
51878.0,STARLINK-3575,PAYLOAD,2023-08-31 04:48:24,15.08845837,0.0001489,53.2163,185.8455,90.5748,269.5415,1.7326e-05,-1.2e-07,0.0,0 STARLINK-3575,1 51878U 22022AC  23243.20028620 -.00000012  00000-0  17326-4 0  9998,2 51878  53.2163 185.8455 0001489  90.5748 269.5415 15.08845837 84005,6917.863,95.437,540.758,538.697,0.0
51878.0,STARLINK-3575,PAYLOAD,2023-09-01 03:03:49,15.08818366,0.0001617,53.2176,181.6826,94.2787,265.8389,0.00028089,4.183e-05,0.0,0 STARLINK-3575,1 51878U 22022AC  23244.12765680  .00004183  00000-0  28089-3 0  9993,2 51878  53.2176 181.6826 0001617  94.2787 265.8389 15.08818366 84143,6917.947,95.439,540.93,538.693,0.0
51878.0,STARLINK-3575,PAYLOAD,2023-09-01 12:36:07,15.08840375,0.0001592,53.2175,179.8982,90.5049,269.6125,4.9495e-05,5e-06,0.0,0 STARLINK-3575,1 51878U 22022AC  23244.52509122  .00000500  00000-0  49495-4 0  9998,2 51878  53.2175 179.8982 0001592  90.5049 269.6125 15.08840375 84208,6917.879,95.438,540.846,538.643,0.0
51878.0,STARLINK-3575,PAYLOAD,2023-09-01 18:57:40,15.08839535,0.0001756,53.2163,178.7091,93.7779,266.3414,3.1609e-05,2.15e-06,0.0,0 STARLINK-3575,1 51878U 22022AC  23244.79005260  .00000215  00000-0  31609-4 0  9992,2 51878  53.2163 178.7091 0001756  93.7779 266.3414 15.08839535 84246,6917.882,95.438,540.962,538.532,0.0
51878.0,STARLINK-3575,PAYLOAD,2023-09-02 04:29:59,15.08840382,0.0001754,53.2161,176.925,93.434,266.6853,7.5029e-05,9.06e-06,0.0,0 STARLINK-3575,1 51878U 22022AC  23245.18749085  .00000906  00000-0  75029-4 0  9997,2 51878  53.2161 176.9250 0001754  93.4340 266.6853 15.08840382 84309,6917.879,95.438,540.958,538.531,0.0
51878.0,STARLINK-3575,PAYLOAD,2023-09-03 01:10:00,15.08842924,0.0001543,53.2184,173.0609,96.8309,263.2859,-2.3965e-05,-6.69e-06,0.0,0 STARLINK-3575,1 51878U 22022AC  23246.04861423 -.00000669  00000-0 -23965-4 0  9994,2 51878  53.2184 173.0609 0001543  96.8309 263.2859 15.08842924 84435,6917.871,95.437,540.804,538.669,0.0
51878.0,STARLINK-3575,PAYLOAD,2023-09-03 12:17:42,15.0883325,0.0001772,53.2194,170.9787,83.19,276.9293,4.9869e-05,5.06e-06,0.0,0 STARLINK-3575,1 51878U 22022AC  23246.51230007  .00000506  00000-0  49869-4 0  9993,2 51878  53.2194 170.9787 0001772  83.1900 276.9293 15.08833250 84502,6917.901,95.438,540.992,538.54,0.0
51878.0,STARLINK-3575,PAYLOAD,2023-09-04 01:00:48,15.08828081,0.0001355,53.2164,168.6001,84.5692,275.5454,-5.2221e-05,-1.119e-05,0.0,0 STARLINK-3575,1 51878U 22022AC  23247.04222720 -.00001119  00000-0 -52221-4 0  9994,2 51878  53.2164 168.6001 0001355  84.5692 275.5454 15.08828081 84580,6917.917,95.438,540.719,538.844,0.0
